CCSDS_OMM_VERS = 2.0
CREATION_DATE  = 
ORIGINATOR     = 

OBJECT_NAME    = ERS-1
OBJECT_ID      = 1991-050A
CENTER_NAME    = EARTH
REF_FRAME      = TEME
TIME_SYSTEM    = UTC
MEAN_ELEMENT_THEORY = SGP/SGP4

EPOCH          = 2026-04-01T06:55:07.943232
MEAN_MOTION    = 14.39466444
ECCENTRICITY   = .0032828
INCLINATION    = 98.7862
RA_OF_ASC_NODE = 110.0895
ARG_OF_PERICENTER = 133.9544
MEAN_ANOMALY   = 226.4359

EPHEMERIS_TYPE = 0
CLASSIFICATION_TYPE = U
NORAD_CAT_ID   = 21574
ELEMENT_SET_NO = 999
REV_AT_EPOCH   = 81898
BSTAR          = .12388E-3
MEAN_MOTION_DOT = .342E-5
MEAN_MOTION_DDOT = 0

CCSDS_OMM_VERS = 2.0
CREATION_DATE  = 
ORIGINATOR     = 

OBJECT_NAME    = ARIANE 40 R/B
OBJECT_ID      = 1991-050F
CENTER_NAME    = EARTH
REF_FRAME      = TEME
TIME_SYSTEM    = UTC
MEAN_ELEMENT_THEORY = SGP/SGP4

EPOCH          = 2026-04-01T20:09:56.495808
MEAN_MOTION    = 14.42910501
ECCENTRICITY   = .0003315
INCLINATION    = 98.1963
RA_OF_ASC_NODE = 143.2025
ARG_OF_PERICENTER = 27.9888
MEAN_ANOMALY   = 332.1480

EPHEMERIS_TYPE = 0
CLASSIFICATION_TYPE = U
NORAD_CAT_ID   = 21610
ELEMENT_SET_NO = 999
REV_AT_EPOCH   = 82233
BSTAR          = .11745E-3
MEAN_MOTION_DOT = .351E-5
MEAN_MOTION_DDOT = 0

CCSDS_OMM_VERS = 2.0
CREATION_DATE  = 
ORIGINATOR     = 

OBJECT_NAME    = INTERCOSMOS 25
OBJECT_ID      = 1991-086A
CENTER_NAME    = EARTH
REF_FRAME      = TEME
TIME_SYSTEM    = UTC
MEAN_ELEMENT_THEORY = SGP/SGP4

EPOCH          = 2026-04-01T20:28:23.397312
MEAN_MOTION    = 12.12079693
ECCENTRICITY   = .1486411
INCLINATION    = 82.6001
RA_OF_ASC_NODE = 296.0037
ARG_OF_PERICENTER = 67.0264
MEAN_ANOMALY   = 308.0503

EPHEMERIS_TYPE = 0
CLASSIFICATION_TYPE = U
NORAD_CAT_ID   = 21819
ELEMENT_SET_NO = 999
REV_AT_EPOCH   = 49949
BSTAR          = .38258E-3
MEAN_MOTION_DOT = .1983E-4
MEAN_MOTION_DDOT = 0

CCSDS_OMM_VERS = 2.0
CREATION_DATE  = 
ORIGINATOR     = 

OBJECT_NAME    = SL-8 R/B
OBJECT_ID      = 1992-008B
CENTER_NAME    = EARTH
REF_FRAME      = TEME
TIME_SYSTEM    = UTC
MEAN_ELEMENT_THEORY = SGP/SGP4

EPOCH          = 2026-04-01T16:34:06.273696
MEAN_MOTION    = 13.75969691
ECCENTRICITY   = .0035871
INCLINATION    = 82.9239
RA_OF_ASC_NODE = 250.6638
ARG_OF_PERICENTER = 71.3293
MEAN_ANOMALY   = 300.1076

EPHEMERIS_TYPE = 0
CLASSIFICATION_TYPE = U
NORAD_CAT_ID   = 21876
ELEMENT_SET_NO = 999
REV_AT_EPOCH   = 71258
BSTAR          = -.58305E-5
MEAN_MOTION_DOT = .1E-6
MEAN_MOTION_DDOT = 0

CCSDS_OMM_VERS = 2.0
CREATION_DATE  = 
ORIGINATOR     = 

OBJECT_NAME    = SL-8 R/B
OBJECT_ID      = 1992-020B
CENTER_NAME    = EARTH
REF_FRAME      = TEME
TIME_SYSTEM    = UTC
MEAN_ELEMENT_THEORY = SGP/SGP4

EPOCH          = 2026-04-01T05:49:47.246016
MEAN_MOTION    = 13.75550633
ECCENTRICITY   = .0027891
INCLINATION    = 82.9297
RA_OF_ASC_NODE = 137.0156
ARG_OF_PERICENTER = 232.9090
MEAN_ANOMALY   = 195.8132

EPHEMERIS_TYPE = 0
CLASSIFICATION_TYPE = U
NORAD_CAT_ID   = 21938
ELEMENT_SET_NO = 999
REV_AT_EPOCH   = 70423
BSTAR          = .2941E-4
MEAN_MOTION_DOT = .43E-6
MEAN_MOTION_DDOT = 0

CCSDS_OMM_VERS = 2.0
CREATION_DATE  = 
ORIGINATOR     = 

OBJECT_NAME    = USA 81
OBJECT_ID      = 1992-023A
CENTER_NAME    = EARTH
REF_FRAME      = TEME
TIME_SYSTEM    = UTC
MEAN_ELEMENT_THEORY = SGP/SGP4

EPOCH          = 2026-04-01T18:45:34.640352
MEAN_MOTION    = 14.32375529
ECCENTRICITY   = .000162
INCLINATION    = 85.0041
RA_OF_ASC_NODE = 118.1139
ARG_OF_PERICENTER = 68.9041
MEAN_ANOMALY   = 291.2325

EPHEMERIS_TYPE = 0
CLASSIFICATION_TYPE = U
NORAD_CAT_ID   = 21949
ELEMENT_SET_NO = 999
REV_AT_EPOCH   = 9809
BSTAR          = .69602E-4
MEAN_MOTION_DOT = .208E-5
MEAN_MOTION_DDOT = 0

CCSDS_OMM_VERS = 2.0
CREATION_DATE  = 
ORIGINATOR     = 

OBJECT_NAME    = COSMOS 2219
OBJECT_ID      = 1992-076A
CENTER_NAME    = EARTH
REF_FRAME      = TEME
TIME_SYSTEM    = UTC
MEAN_ELEMENT_THEORY = SGP/SGP4

EPOCH          = 2026-04-01T03:46:19.796448
MEAN_MOTION    = 14.14089614
ECCENTRICITY   = .00177736
INCLINATION    = 71.0614
RA_OF_ASC_NODE = 331.1053
ARG_OF_PERICENTER = 173.5050
MEAN_ANOMALY   = 186.6307

EPHEMERIS_TYPE = 0
CLASSIFICATION_TYPE = U
NORAD_CAT_ID   = 22219
ELEMENT_SET_NO = 999
REV_AT_EPOCH   = 72155
BSTAR          = -.89199195E-4
MEAN_MOTION_DOT = -.217E-5
MEAN_MOTION_DDOT = 0

CCSDS_OMM_VERS = 2.0
CREATION_DATE  = 
ORIGINATOR     = 

OBJECT_NAME    = SL-16 R/B
OBJECT_ID      = 1992-076B
CENTER_NAME    = EARTH
REF_FRAME      = TEME
TIME_SYSTEM    = UTC
MEAN_ELEMENT_THEORY = SGP/SGP4

EPOCH          = 2026-04-01T20:59:51.106848
MEAN_MOTION    = 14.16863028
ECCENTRICITY   = .0010823
INCLINATION    = 70.9989
RA_OF_ASC_NODE = 139.5380
ARG_OF_PERICENTER = 53.4222
MEAN_ANOMALY   = 118.0943

EPHEMERIS_TYPE = 0
CLASSIFICATION_TYPE = U
NORAD_CAT_ID   = 22220
ELEMENT_SET_NO = 999
REV_AT_EPOCH   = 72511
BSTAR          = -.70562E-4
MEAN_MOTION_DOT = -.189E-5
MEAN_MOTION_DDOT = 0

CCSDS_OMM_VERS = 2.0
CREATION_DATE  = 
ORIGINATOR     = 

OBJECT_NAME    = COSMOS 2221
OBJECT_ID      = 1992-080A
CENTER_NAME    = EARTH
REF_FRAME      = TEME
TIME_SYSTEM    = UTC
MEAN_ELEMENT_THEORY = SGP/SGP4

EPOCH          = 2026-04-01T18:37:57.656064
MEAN_MOTION    = 14.96300649
ECCENTRICITY   = .0015636
INCLINATION    = 82.5008
RA_OF_ASC_NODE = 256.9592
ARG_OF_PERICENTER = 113.2827
MEAN_ANOMALY   = 247.0043

EPHEMERIS_TYPE = 0
CLASSIFICATION_TYPE = U
NORAD_CAT_ID   = 22236
ELEMENT_SET_NO = 999
REV_AT_EPOCH   = 78424
BSTAR          = .21506E-3
MEAN_MOTION_DOT = .2461E-4
MEAN_MOTION_DDOT = 0

CCSDS_OMM_VERS = 2.0
CREATION_DATE  = 
ORIGINATOR     = 

OBJECT_NAME    = SL-16 R/B
OBJECT_ID      = 1992-093B
CENTER_NAME    = EARTH
REF_FRAME      = TEME
TIME_SYSTEM    = UTC
MEAN_ELEMENT_THEORY = SGP/SGP4

EPOCH          = 2026-04-01T01:42:34.556256
MEAN_MOTION    = 14.15455812
ECCENTRICITY   = .00065835
INCLINATION    = 71.0226
RA_OF_ASC_NODE = 317.2836
ARG_OF_PERICENTER = 272.1865
MEAN_ANOMALY   = 87.8504

EPHEMERIS_TYPE = 0
CLASSIFICATION_TYPE = U
NORAD_CAT_ID   = 22285
ELEMENT_SET_NO = 999
REV_AT_EPOCH   = 71632
BSTAR          = .56890985E-4
MEAN_MOTION_DOT = .64E-6
MEAN_MOTION_DDOT = 0

CCSDS_OMM_VERS = 2.0
CREATION_DATE  = 
ORIGINATOR     = 

OBJECT_NAME    = COSMOS 2228
OBJECT_ID      = 1992-094A
CENTER_NAME    = EARTH
REF_FRAME      = TEME
TIME_SYSTEM    = UTC
MEAN_ELEMENT_THEORY = SGP/SGP4

EPOCH          = 2026-04-01T20:15:30.044736
MEAN_MOTION    = 14.97314489
ECCENTRICITY   = .00171
INCLINATION    = 82.5194
RA_OF_ASC_NODE = 215.1409
ARG_OF_PERICENTER = 220.4303
MEAN_ANOMALY   = 139.5650

EPHEMERIS_TYPE = 0
CLASSIFICATION_TYPE = U
NORAD_CAT_ID   = 22286
ELEMENT_SET_NO = 999
REV_AT_EPOCH   = 77952
BSTAR          = .23554E-3
MEAN_MOTION_DOT = .2765E-4
MEAN_MOTION_DDOT = 0

CCSDS_OMM_VERS = 2.0
CREATION_DATE  = 
ORIGINATOR     = 

OBJECT_NAME    = SL-16 R/B
OBJECT_ID      = 1993-016B
CENTER_NAME    = EARTH
REF_FRAME      = TEME
TIME_SYSTEM    = UTC
MEAN_ELEMENT_THEORY = SGP/SGP4

EPOCH          = 2026-04-01T09:31:07.118688
MEAN_MOTION    = 14.15306538
ECCENTRICITY   = .001235
INCLINATION    = 71.0075
RA_OF_ASC_NODE = 167.4935
ARG_OF_PERICENTER = 284.9144
MEAN_ANOMALY   = 75.0611

EPHEMERIS_TYPE = 0
CLASSIFICATION_TYPE = U
NORAD_CAT_ID   = 22566
ELEMENT_SET_NO = 999
REV_AT_EPOCH   = 70538
BSTAR          = .12953E-3
MEAN_MOTION_DOT = .205E-5
MEAN_MOTION_DDOT = 0

